ONEWEB-0201             
1 48241U 21031AH  23054.08621891  .00000127  00000+0  30857-3 0  9990
2 48241  87.9132 170.4341 0001717 110.6089 249.5225 13.14502296 89405
ONEWEB-0207             
1 48242U 21031AJ  23054.06082337  .00000135  00000+0  33093-3 0  9999
2 48242  87.9135 170.4058 0001956 107.3819 252.7524 13.14506420 89314
ONEWEB-0208             
1 48243U 21031AK  23053.35356827 -.00000094  00000+0 -28748-3 0  9996
2 48243  87.9130 170.5680 0001702 120.8715 239.2582 13.14506146 89236
ONEWEB-0200             
1 48244U 21031AL  23053.39373779  .00000313  00000+0  80951-3 0  9992
2 48244  87.9125 170.5531 0001634 121.0989 239.0301 13.14501282 89161
ONEWEB-0217             
1 48245U 21031AM  23054.01960358  .00000057  00000+0  11972-3 0  9990
2 48245  87.9132 170.4044 0001612 125.2299 234.8982 13.14503150 89203
ONEWEB-0211             
1 48767U 21045A   23053.26314656 -.00000072  00000+0 -22500-3 0  9992
2 48767  87.9098 140.2892 0001534 113.9806 246.1485 13.15548966 85205
ONEWEB-0223             
1 48768U 21045B   23053.28425760 -.00000131  00000+0 -38264-3 0  9994
2 48768  87.9094 140.2948 0001409 114.1171 246.0107 13.15549852 85196
ONEWEB-0230             
1 48769U 21045C   23053.25681825  .00000037  00000+0  63711-4 0  9997
2 48769  87.9116 140.3276 0001546 107.9769 252.1530 13.15545980 85457
ONEWEB-0237             
1 48770U 21045D   23053.24624855  .00000099  00000+0  22965-3 0  9991
2 48770  87.9099 140.2765 0001162  97.8918 262.2344 13.15547666 85175
ONEWEB-0235             
1 48771U 21045E   23053.29482469  .00000167  00000+0  40877-3 0  9998
2 48771  87.9098 140.3022 0000911  89.9765 270.1470 13.15551495 85178
ONEWEB-0242             
1 48772U 21045F   23053.28850006  .00000105  00000+0  24425-3 0  9997
2 48772  87.9096 140.2958 0001590  98.1278 262.0033 13.15546535 85218
ONEWEB-0241             
1 48773U 21045G   23053.27581825  .00000036  00000+0  62775-4 0  9991
2 48773  87.9075 140.2329 0001444 122.6393 237.4877 13.15549065 85120
ONEWEB-0243             
1 48774U 21045H   23053.30750299  .00000160  00000+0  38995-3 0  9993
2 48774  87.9095 140.2723 0001270  91.3549 268.7727 13.15551236 85150
ONEWEB-0222             
1 48775U 21045J   23053.29693338 -.00000028  00000+0 -10902-3 0  9995
2 48775  87.9096 140.3099 0001646 111.4592 248.6714 13.15549218 85192
ONEWEB-0244             
1 48776U 21045K   23053.92654367  .00001373  00000+0  36125-2 0  9991
2 48776  87.9097 140.0805 0001741  93.1935 266.9395 13.15537604 85845
ONEWEB-0247             
1 48777U 21045L   23053.92230317  .00000831  00000+0  21739-2 0  9990
2 48777  87.9097 140.1018 0001249 100.9021 259.2250 13.15551913 85281
ONEWEB-0245             
1 48778U 21045M   23053.68991741  .00000281  00000+0  71165-3 0  9997
2 48778  87.9095 140.2424 0001665 120.3128 239.8167 13.15549739 85226
ONEWEB-0229             
1 48779U 21045N   23053.30328403  .00000184  00000+0  45545-3 0  9991
2 48779  87.9097 140.3064 0001435 109.8492 250.2793 13.15547092 85201
ONEWEB-0228             
1 48780U 21045P   23053.31701384  .00000077  00000+0  17027-3 0  9992
2 48780  87.9095 140.2885 0001582 100.1221 260.0088 13.15546138 85125
ONEWEB-0232             
1 48781U 21045Q   23053.23566499  .00000161  00000+0  39477-3 0  9997
2 48781  87.9124 140.3462 0001425 109.4641 250.6644 13.15556410 85436
ONEWEB-0231             
1 48782U 21045R   23053.29061806  .00000148  00000+0  36029-3 0  9991
2 48782  87.9113 140.2339 0001401 102.6388 257.4899 13.15551589 85130
ONEWEB-0234             
1 48783U 21045S   23053.92441846  .00000184  00000+0  45419-3 0  9991
2 48783  87.9096 140.1712 0001898 115.9530 244.1796 13.15548600 85354
ONEWEB-0238             
1 48784U 21045T   23053.25153170  .00000009  00000+0 -10914-4 0  9998
2 48784  87.9097 140.3144 0001889 113.4530 246.6799 13.15552600 85164
ONEWEB-0240             
1 48785U 21045U   23053.27369525 -.00000289  00000+0 -80225-3 0  9996
2 48785  87.9097 140.2851 0001369 122.7058 237.4204 13.15547075 85192
ONEWEB-0246             
1 48786U 21045V   23053.26947147 -.00000352  00000+0 -96955-3 0  9996
2 48786  87.9098 140.2844 0001326 103.3506 256.7772 13.15547419 85064
ONEWEB-0210             
1 48787U 21045W   23053.24413587  .00000088  00000+0  20046-3 0  9993
2 48787  87.9097 140.3004 0001393  76.7180 283.4105 13.15549117 85107
ONEWEB-0214             
1 48788U 21045X   23053.25469992  .00000058  00000+0  12083-3 0  9995
2 48788  87.9097 140.2872 0001633  74.3731 285.7580 13.15547508 85073
ONEWEB-0221             
1 48789U 21045Y   23053.26102161 -.00000062  00000+0 -19855-3 0  9990
2 48789  87.9087 140.2753 0001481 108.2639 251.8653 13.15548154 85169
ONEWEB-0213             
1 48790U 21045Z   23053.32441895  .00000036  00000+0  62169-4 0  9995
2 48790  87.9098 140.2995 0001293  99.8238 260.3039 13.15547135 85231
ONEWEB-0212             
1 48791U 21045AA  23054.14202889  .00001398  00000+0  36790-2 0  9996
2 48791  87.9066 140.1055 0002197 113.3908 246.7453 13.15545838 86476
ONEWEB-0227             
1 48792U 21045AB  23053.98357140  .00001044  00000+0  27401-2 0  9996
2 48792  87.9052 140.1501 0001814 121.6134 238.5174 13.15544716 86390
ONEWEB-0226             
1 48793U 21045AC  23053.29272496  .00000123  00000+0  29199-3 0  9995
2 48793  87.9099 140.3090 0001277  85.8528 274.2748 13.15546634 85145
ONEWEB-0224             
1 48794U 21045AD  23053.25892188 -.00000138  00000+0 -40129-3 0  9992
2 48794  87.9075 140.2377 0002026 119.1080 241.0253 13.15548943 85063
ONEWEB-0233             
1 48795U 21045AE  23053.25246182  .00000145  00000+0  35014-3 0  9993
2 48795  87.9123 140.3643 0001531 118.1497 241.9788 13.15548675 85071
ONEWEB-0190             
1 48796U 21045AF  23053.25045586  .00000008  00000+0 -12282-4 0  9991
2 48796  87.9093 140.3226 0000575  83.4393 276.6803 13.15551317 85150
ONEWEB-0236             
1 48797U 21045AG  23053.26737202 -.00000064  00000+0 -20453-3 0  9997
2 48797  87.9094 140.2878 0001731 108.0187 252.1132 13.15547321 85046
ONEWEB-0248             
1 48798U 21045AH  23053.28004227 -.00000019  00000+0 -84066-4 0  9995
2 48798  87.9097 140.2986 0001207 134.8452 225.2777 13.15550897 85206
ONEWEB-0225             
1 48799U 21045AJ  23053.68145792  .00000211  00000+0  52770-3 0  9991
2 48799  87.9091 140.2406 0001076 108.2385 251.8863 13.15547213 85267
ONEWEB-0215             
1 48800U 21045AK  23053.27158369 -.00000067  00000+0 -21326-3 0  9997
2 48800  87.9095 140.2904 0000800 128.5873 231.5329 13.15546788 85086
ONEWEB-0216             
1 48801U 21045AL  23053.28217254  .00000043  00000+0  79932-4 0  9997
2 48801  87.9098 140.3242 0001708  92.6973 267.4352 13.15548272 85091
ONEWEB-0239             
1 48802U 21045AM  23053.28637951  .00000022  00000+0  24737-4 0  9998
2 48802  87.9036 140.2592 0000961 133.9822 226.1388 13.15548662 85132
ONEWEB-0249             
1 48967U 21060A   23053.87651277 -.00000020  00000+0 -85318-4 0  9991
2 48967  87.9010 109.7881 0001984 100.2810 259.8545 13.16595093 80355
ONEWEB-0250             
1 48968U 21060B   23053.88072887 -.00000488  00000+0 -13107-2 0  9990
2 48968  87.9010 109.7941 0001564 107.9717 252.1584 13.16593424 80330
ONEWEB-0252             
1 48970U 21060D   23053.90817126 -.00000162  00000+0 -45696-3 0  9997
2 48970  87.9020 109.7805 0001669  96.7319 263.4002 13.16595749 80402
ONEWEB-0253             
1 48971U 21060E   23053.89763423  .00000048  00000+0  91565-4 0  9994
2 48971  87.8995 109.7686 0001442  98.1385 261.9910 13.16596109 80332
ONEWEB-0254             
1 48972U 21060F   23053.90608687  .00000162  00000+0  38979-3 0  9993
2 48972  87.9019 109.7687 0001492  99.2921 260.8379 13.16595235 80331
ONEWEB-0255             
1 48973U 21060G   23053.86808569 -.00000047  00000+0 -15687-3 0  9995
2 48973  87.9006 109.8354 0001839 102.0556 258.0781 13.16594030 80408
ONEWEB-0256             
1 48974U 21060H   23053.89339308  .00000050  00000+0  96156-4 0  9992
2 48974  87.8995 109.7613 0002150  90.0667 270.0710 13.16596233 80377
ONEWEB-0257             
1 48975U 21060J   23053.85117852  .00000036  00000+0  59803-4 0  9999
2 48975  87.9001 109.8232 0001783  92.1232 268.0103 13.16595822 80328
ONEWEB-0258             
1 48976U 21060K   23053.85329279  .00000064  00000+0  13418-3 0  9990
2 48976  87.9009 109.8375 0001776 103.5463 256.5866 13.16596673 80334
ONEWEB-0259             
1 48977U 21060L   23053.84696942  .00000129  00000+0  30354-3 0  9994
2 48977  87.9013 109.8194 0001620 109.9364 250.1942 13.16593698 80369
ONEWEB-0260             
1 48978U 21060M   23053.91664094  .00000078  00000+0  16972-3 0  9999
2 48978  87.8998 109.7769 0002103  74.4130 285.7232 13.16594923 80359
ONEWEB-0261             
1 48979U 21060N   23053.88286441 -.00000028  00000+0 -10711-3 0  9994
2 48979  87.9003 109.7993 0001572  90.3550 269.7761 13.16594248 80404
ONEWEB-0262             
1 48980U 21060P   23053.86385778 -.00000018  00000+0 -79712-4 0  9993
2 48980  87.9022 109.7889 0001426 115.3165 244.8114 13.16596845 80365
ONEWEB-0263             
1 48981U 21060Q   23053.89551830  .00000101  00000+0  22958-3 0  9991
2 48981  87.9024 109.7898 0001216 101.8518 258.2749 13.16595375 80334
ONEWEB-0264             
1 48982U 21060R   23053.85645108  .00000043  00000+0  78627-4 0  9990
2 48982  87.9035 109.7782 0001848 101.3674 258.7665 13.16597981 80335
ONEWEB-0266             
1 48984U 21060T   23053.87862961  .00000014  00000+0  28538-5 0  9997
2 48984  87.9018 109.7942 0001972 104.9625 255.1724 13.16595102 80328
ONEWEB-0267             
1 48985U 21060U   23053.88919624  .00000086  00000+0  19032-3 0  9994
2 48985  87.9018 109.7908 0001480  86.0748 274.0552 13.16595319 80331
ONEWEB-0268             
1 48986U 21060V   23053.85751793  .00000015  00000+0  59040-5 0  9990
2 48986  87.9019 109.8009 0001931  98.8454 261.2895 13.16597921 80599
